     2.100          NAVIGATION                              RINEX VERSION / TYPE
fic2rin                                 03/25/2012 00:13:45 PGM / RUN BY / DATE
                                                            END OF HEADER
 2 12  3 24 22  0  0.0  .384082086384D-03  .147792889038D-11  .000000000000D+00
     .350000000000D+02 -.298437500000D+02  .467912347570D-08 -.218068688282D+01
    -.159256160259D-05  .110701017547D-01  .111162662506D-04  .515367255020D+04
     .597600000000D+06 -.428408384323D-07  .343809155317D-02 -.165775418282D-06
     .939187088546D+00  .153031250000D+03 -.283129179195D+01 -.797926093967D-08
    -.203579908492D-09  .100000000000D+01  .168000000000D+04  .000000000000D+00
     .240000000000D+01  .000000000000D+00 -.172294676304D-07  .350000000000D+02
     .590406000000D+06  .400000000000D+01
 3 12  3 24 22  0  0.0  .268807634711D-04  .511590769747D-11  .000000000000D+00
     .270000000000D+02 -.931250000000D+01  .547915680030D-08 -.203103744969D+01
    -.391155481339D-06  .150935862912D-01  .358000397682D-05  .515370156288D+04
     .597600000000D+06  .247731804848D-06 -.115947472658D+01 -.745058059692D-07
     .930433320305D+00  .291093750000D+03  .117652531621D+01 -.840606443204D-08
     .107147320259D-11  .100000000000D+01  .168000000000D+04  .000000000000D+00
     .240000000000D+01  .000000000000D+00 -.419095158577D-08  .270000000000D+02
     .590406000000D+06  .400000000000D+01
 4 12  3 24 22  0  0.0  .132853630930D-03  .114823706099D-10  .000000000000D+00
     .330000000000D+02 -.240000000000D+02  .481698636110D-08  .922168204739D+00
    -.106729567051D-05  .100106208120D-01  .109542161226D-04  .515357942581D+04
     .597600000000D+06 -.197440385818D-06  .204129561558D-01 -.745058059692D-08
     .938251811371D+00  .159968750000D+03  .843243790454D+00 -.820462746995D-08
    -.463947896721D-09  .100000000000D+01  .168000000000D+04  .000000000000D+00
     .240000000000D+01  .000000000000D+00 -.605359673500D-08  .330000000000D+02
     .590406000000D+06  .400000000000D+01
 6 12  3 24 22  0  0.0  .318619422615D-04 -.227373675443D-12  .000000000000D+00
     .630000000000D+02 -.183750000000D+02  .545665586305D-08 -.112211883401D+00
    -.103004276752D-05  .718318892177D-02  .434741377831D-05  .515368630981D+04
     .597600000000D+06  .800937414169D-07 -.108332083776D+01 -.147148966789D-06
     .937386631379D+00  .285843750000D+03 -.588971158110D+00 -.867786146776D-08
    -.185007706314D-09  .100000000000D+01  .168000000000D+04  .000000000000D+00
     .240000000000D+01  .000000000000D+00 -.512227416039D-08  .630000000000D+02
     .590406000000D+06  .400000000000D+01
10 12  3 24 22  0  0.0 -.332840718329D-04 -.113686837722D-11  .000000000000D+00
     .240000000000D+02  .941562500000D+02  .491270463387D-08  .133201419459D+00
     .501610338688D-05  .112175773829D-01  .755675137043D-05  .515368669891D+04
     .597600000000D+06  .186264514923D-07  .108809267172D+01  .154599547386D-06
     .946405816847D+00  .227968750000D+03  .749281434122D+00 -.845499504162D-08
     .348943106310D-09  .100000000000D+01  .168000000000D+04  .000000000000D+00
     .240000000000D+01  .000000000000D+00 -.232830643654D-08  .240000000000D+02
     .590406000000D+06  .400000000000D+01
11 12  3 24 22  0  0.0 -.244828406721D-03 -.363797880709D-11  .000000000000D+00
     .980000000000D+02 -.551250000000D+02  .599489256848D-08  .277987324239D+01
    -.286474823952D-05  .127918978687D-01  .880844891071D-05  .515367770576D+04
     .597600000000D+06  .119209289551D-06 -.249348071194D+00 -.124797224998D-06
     .888412497969D+00  .168531250000D+03  .103485662932D+01 -.850999733269D-08
    -.457876215239D-09  .100000000000D+01  .168000000000D+04  .000000000000D+00
     .240000000000D+01  .000000000000D+00 -.116415321827D-07  .980000000000D+02
     .590406000000D+06  .400000000000D+01
12 12  3 24 22  0  0.0  .596954487264D-04  .216004991671D-11  .000000000000D+00
     .450000000000D+02  .401250000000D+02  .408659879467D-08  .248952725775D+01
     .202096998692D-05  .396179826930D-02  .898353755474D-05  .515354652786D+04
     .597600000000D+06 -.113621354103D-06 -.205101957354D+01  .465661287308D-07
     .978867180513D+00  .214968750000D+03 -.292396903619D-01 -.777782397759D-08
     .417517391275D-09  .100000000000D+01  .168000000000D+04  .000000000000D+00
     .240000000000D+01  .000000000000D+00 -.121071934700D-07  .450000000000D+02
     .590406000000D+06  .400000000000D+01
13 12  3 24 22  0  0.0  .217540189624D-03 -.227373675443D-11  .000000000000D+00
     .850000000000D+02 -.314375000000D+02  .442697011536D-08 -.129123808294D+01
    -.157766044140D-05  .490228633862D-02  .301748514175D-05  .515369220734D+04
     .597600000000D+06 -.106170773506D-06  .220578159669D+01  .353902578354D-07
     .986170285539D+00  .340187500000D+03  .195078497935D+01 -.825677249915D-08
    -.118576367753D-09  .100000000000D+01  .168000000000D+04  .000000000000D+00
     .240000000000D+01  .000000000000D+00 -.111758708954D-07  .850000000000D+02
     .590406000000D+06  .400000000000D+01
14 12  3 24 22  0  0.0  .198096968234D-03  .113686837722D-11  .000000000000D+00
     .900000000000D+02 -.385937500000D+02  .454947521819D-08 -.122442089279D+01
    -.185146927834D-05  .616303144488D-02  .275485217571D-05  .515356651115D+04
     .597600000000D+06  .428408384323D-07  .217951496548D+01  .104308128357D-06
     .979027741624D+00  .335562500000D+03 -.205660556531D+01 -.826998733531D-08
    -.153220667970D-09  .100000000000D+01  .168000000000D+04  .000000000000D+00
     .240000000000D+01  .000000000000D+00 -.884756445885D-08  .900000000000D+02
     .590406000000D+06  .400000000000D+01
15 12  3 24 22  0  0.0 -.917697325349D-04  .227373675443D-12  .000000000000D+00
     .580000000000D+02 -.207812500000D+02  .526557647525D-08 -.169052872533D+01
    -.129453837872D-05  .437917513773D-02  .208616256714D-05  .515378532600D+04
     .597600000000D+06  .633299350739D-07  .209376334805D+01 -.782310962677D-07
     .945874973615D+00  .330875000000D+03  .635551915117D-01 -.867714715229D-08
    -.185722021782D-10  .100000000000D+01  .168000000000D+04  .000000000000D+00
     .240000000000D+01  .000000000000D+00 -.102445483208D-07  .580000000000D+02
     .590406000000D+06  .400000000000D+01
16 12  3 24 22  0  0.0 -.228705815971D-03 -.147792889038D-11  .000000000000D+00
     .790000000000D+02  .336562500000D+02  .416124476112D-08  .147302279091D+00
     .164099037647D-05  .657262385357D-02  .880099833012D-05  .515363468552D+04
     .597600000000D+06  .931322574615D-07 -.203290944647D+01  .279396772385D-07
     .979715981675D+00  .218062500000D+03 -.620982874886D-01 -.791604402072D-08
     .413231498465D-09  .100000000000D+01  .168000000000D+04  .000000000000D+00
     .240000000000D+01  .000000000000D+00 -.977888703346D-08  .790000000000D+02
     .590406000000D+06  .400000000000D+01
17 12  3 24 22  0  0.0  .140462070704D-03 -.250111042988D-11  .000000000000D+00
     .480000000000D+02 -.184062500000D+02  .493377694018D-08 -.839609992646D+00
    -.922009348869D-06  .727916206233D-02  .445544719696D-05  .515364606857D+04
     .597600000000D+06  .106170773506D-06 -.991574603359D+00  .141561031342D-06
     .962349569974D+00  .295781250000D+03 -.231624702800D+01 -.837749181330D-08
    -.196793911542D-09  .100000000000D+01  .168000000000D+04  .000000000000D+00
     .240000000000D+01  .000000000000D+00 -.107102096081D-07  .480000000000D+02
     .590406000000D+06  .400000000000D+01
18 12  3 24 22  0  0.0  .187730416656D-03  .181898940355D-11  .000000000000D+00
     .500000000000D+02  .104406250000D+03  .527021952580D-08  .640933436285D+00
     .543706119061D-05  .129753723741D-01  .713579356670D-05  .515368310547D+04
     .597600000000D+06 -.189989805222D-06  .107786552700D+01  .117346644402D-06
     .930249564628D+00  .226531250000D+03 -.219110469697D+01 -.866464663160D-08
     .247867467532D-09  .100000000000D+01  .168000000000D+04  .000000000000D+00
     .240000000000D+01  .000000000000D+00 -.107102096081D-07  .500000000000D+02
     .590406000000D+06  .400000000000D+01
19 12  3 24 22  0  0.0 -.248793046921D-03 -.375166564481D-11  .000000000000D+00
     .370000000000D+02 -.289375000000D+02  .483448709008D-08 -.166001449831D+01
    -.153854489326D-05  .804450875148D-02  .485964119434D-05  .515375612640D+04
     .597600000000D+06 -.633299350739D-07 -.938340714366D+00 -.968575477600D-07
     .959781977583D+00  .286375000000D+03  .141922078939D+00 -.819819863074D-08
    -.141077305007D-09  .100000000000D+01  .168000000000D+04  .000000000000D+00
     .240000000000D+01  .000000000000D+00 -.144354999065D-07  .370000000000D+02
     .590406000000D+06  .400000000000D+01
20 12  3 24 22  0  0.0  .632968731225D-04 -.113686837722D-12  .000000000000D+00
     .990000000000D+02  .107906250000D+03  .514664294977D-08  .100279574971D+01
     .549666583538D-05  .510452664457D-02  .812672078609D-05  .515374278450D+04
     .597600000000D+06 -.558793544769D-07  .102409241372D+01  .931322574615D-08
     .930710037112D+00  .203937500000D+03  .129056166034D+01 -.851642617191D-08
     .355371945525D-09  .100000000000D+01  .168000000000D+04  .000000000000D+00
     .485000000000D+01  .000000000000D+00 -.791624188423D-08  .990000000000D+02
     .590406000000D+06  .400000000000D+01
21 12  3 24 22  0  0.0 -.212808605283D-03 -.250111042988D-11  .000000000000D+00
     .520000000000D+02 -.209375000000D+02  .493520557112D-08  .169557896577D+01
    -.113621354103D-05  .188417549944D-01  .114813446999D-04  .515364331055D+04
     .597600000000D+06 -.439584255219D-06  .268113443658D-01 -.931322574615D-07
     .931938112952D+00  .148531250000D+03 -.227655653030D+01 -.825820113008D-08
    -.386801826134D-09  .100000000000D+01  .168000000000D+04  .000000000000D+00
     .240000000000D+01  .000000000000D+00 -.111758708954D-07  .520000000000D+02
     .590406000000D+06  .400000000000D+01
